{
    "type": "FeatureCollection",
    "name": "Archived Places of Interest",
    "features": [
        {
            "type": "Feature",
            "geometry": {
                "type": "Point",
                "coordinates": [
                    5.1,
                    52.1
                ]
            },
            "properties": {
                "name": "Archive smoke test",
                "category": "restaurant",
                "description": "Temporary test feature",
                "avoid": false,
                "placeName": "Utrecht",
                "createdAt": "2025-04-03T00:00:00+00:00",
                "oneliner": "Temporary test"
            }
        },
        {
            "type": "Feature",
            "geometry": {
                "type": "Point",
                "coordinates": [
                    16.381591999999955,
                    48.211798
                ]
            },
            "properties": {
                "name": "Badeschiff",
                "oneliner": "Boot in de Donau waarin een zwembad, restaurant en dansschool zitten. Alles in de bekende \"afgeragd chique\" stijl. Aangezien Wenen niet zo hip is, is dit wel een aardige uitzondering. Kaart is erg gev...",
                "description": "Boot in de Donau waarin een zwembad, restaurant en dansschool zitten. Alles in de bekende \"afgeragd chique\" stijl. Aangezien Wenen niet zo hip is, is dit wel een aardige uitzondering. Kaart is erg gevarieerd en het eten (in elk geval de Risotto) is erg lekker.",
                "category": "overig",
                "avoid": false,
                "placeName": "Wenen"
            }
        }
    ]
}